STARLINK-1340
1 15583C 20025BE  21326.15121490 -.00017253  00000-0 -11561-2 0  3261
2 15583  53.0538 278.0619 0001651  65.7959 247.0646 15.06410270    14
